{"type": "FeatureCollection", "features": [ {"type": "Feature", "properties": {"norad_id": 34529, "name": "IRIDIUM 33 DEB", "group": "iridium-33-debris", "lat": 71.00366820863884, "lon": -159.0165415499511, "alt_km": 746.6068525911896, "timestamp": "2025-12-21T14:40:48.303465+00:00", "meta": {"OBJECT_NAME": "IRIDIUM 33 DEB", "OBJECT_ID": "1997-051HW", "EPOCH": "2025-12-21T02:30:30.769056", "MEAN_MOTION": 14.40621874, "ECCENTRICITY": 0.0005784, "INCLINATION": 86.3633, "RA_OF_ASC_NODE": 31.8458, "ARG_OF_PERICENTER": 152.3196, "MEAN_ANOMALY": 207.8312, "EPHEMERIS_TYPE": 0, "CLASSIFICATION_TYPE": "U", "NORAD_CAT_ID": 34529, "ELEMENT_SET_NO": 999, "REV_AT_EPOCH": 88262, "BSTAR": 8.4650743e-05, "MEAN_MOTION_DOT": 2.9e-06, "MEAN_MOTION_DDOT": 0}, "tle": {"line1": "1 34529U 97051HW  25355.10452279  .00000290  00000+0  84651-4 0  9993", "line2": "2 34529  86.3633  31.8458 0005784 152.3196 207.8312 14.40621874882620"}}, "geometry": {"type": "Point", "coordinates": [-159.0165415499511, 71.00366820863884]}}, {"type": "Feature", "properties": {"norad_id": 34538, "name": "IRIDIUM 33 DEB", "group": "iridium-33-debris", "lat": 11.51760229312039, "lon": 2.4300598795588635, "alt_km": 744.7438877643726, "timestamp": "2025-12-21T14:40:48.303476+00:00", "meta": {"OBJECT_NAME": "IRIDIUM 33 DEB", "OBJECT_ID": "1997-051JF", "EPOCH": "2025-12-21T01:35:09.173760", "MEAN_MOTION": 14.4269214, "ECCENTRICITY": 0.00321288, "INCLINATION": 86.2756, "RA_OF_ASC_NODE": 1.9085, "ARG_OF_PERICENTER": 299.2748, "MEAN_ANOMALY": 120.1936, "EPHEMERIS_TYPE": 0, "CLASSIFICATION_TYPE": "U", "NORAD_CAT_ID": 34538, "ELEMENT_SET_NO": 999, "REV_AT_EPOCH": 87876, "BSTAR": 0.00062386446, "MEAN_MOTION_DOT": 2.106e-05, "MEAN_MOTION_DDOT": 0}, "tle": {"line1": "1 34538U 97051JF  25355.06607840  .00002106  00000+0  62386-3 0  9992", "line2": "2 34538  86.2756   1.9085 0032128 299.2748 120.1936 14.42692140878760"}}, "geometry": {"type": "Point", "coordinates": [2.4300598795588635, 11.51760229312039]}}, {"type": "Feature", "properties": {"norad_id": 34540, "name": "IRIDIUM 33 DEB", "group": "iridium-33-debris", "lat": 33.091203856100435, "lon": -54.04073853416056, "alt_km": 642.9704345844966, "timestamp": "2025-12-21T14:40:48.303486+00:00", "meta": {"OBJECT_NAME": "IRIDIUM 33 DEB", "OBJECT_ID": "1997-051JH", "EPOCH": "2025-12-21T03:12:48.465792", "MEAN_MOTION": 14.7547443, "ECCENTRICITY": 0.00177108, "INCLINATION": 86.311, "RA_OF_ASC_NODE": 303.768, "ARG_OF_PERICENTER": 130.8204, "MEAN_ANOMALY": 246.4988, "EPHEMERIS_TYPE": 0, "CLASSIFICATION_TYPE": "U", "NORAD_CAT_ID": 34540, "ELEMENT_SET_NO": 999, "REV_AT_EPOCH": 89145, "BSTAR": 0.0010237596, "MEAN_MOTION_DOT": 7.004e-05, "MEAN_MOTION_DDOT": 0}, "tle": {"line1": "1 34540U 97051JH  25355.13389428  .00007004  00000+0  10238-2 0  9992", "line2": "2 34540  86.3110 303.7680 0017710 130.8204 246.4988 14.75474430891455"}}, "geometry": {"type": "Point", "coordinates": [-54.04073853416056, 33.091203856100435]}}, {"type": "Feature", "properties": {"norad_id": 34648, "name": "IRIDIUM 33 DEB", "group": "iridium-33-debris", "lat": -52.6217254354669, "lon": -86.37531826220882, "alt_km": 754.6374305113004, "timestamp": "2025-12-21T14:40:48.303497+00:00", "meta": {"OBJECT_NAME": "IRIDIUM 33 DEB", "OBJECT_ID": "1997-051JZ", "EPOCH": "2025-12-21T01:19:00.379200", "MEAN_MOTION": 14.11717804, "ECCENTRICITY": 0.01800717, "INCLINATION": 86.3908, "RA_OF_ASC_NODE": 278.5885, "ARG_OF_PERICENTER": 272.8374, "MEAN_ANOMALY": 85.2213, "EPHEMERIS_TYPE": 0, "CLASSIFICATION_TYPE": "U", "NORAD_CAT_ID": 34648, "ELEMENT_SET_NO": 999, "REV_AT_EPOCH": 85078, "BSTAR": 0.0043851239, "MEAN_MOTION_DOT": 9.319e-05, "MEAN_MOTION_DDOT": 0}, "tle": {"line1": "1 34648U 97051JZ  25355.05486550  .00009319  00000+0  43851-2 0  9994", "line2": "2 34648  86.3908 278.5885 0180071 272.8374  85.2213 14.11717804850787"}}, "geometry": {"type": "Point", "coordinates": [-86.37531826220882, -52.6217254354669]}}, {"type": "Feature", "properties": {"norad_id": 34651, "name": "IRIDIUM 33 DEB", "group": "iridium-33-debris", "lat": 82.0776552518875, "lon": -71.04821190233436, "alt_km": 776.7533625192837, "timestamp": "2025-12-21T14:40:48.303514+00:00", "meta": {"OBJECT_NAME": "IRIDIUM 33 DEB", "OBJECT_ID": "1997-051KC", "EPOCH": "2025-12-19T16:44:48.420096", "MEAN_MOTION": 14.25922062, "ECCENTRICITY": 0.01422464, "INCLINATION": 86.2827, "RA_OF_ASC_NODE": 137.6175, "ARG_OF_PERICENTER": 181.9677, "MEAN_ANOMALY": 178.0974, "EPHEMERIS_TYPE": 0, "CLASSIFICATION_TYPE": "U", "NORAD_CAT_ID": 34651, "ELEMENT_SET_NO": 999, "REV_AT_EPOCH": 85995, "BSTAR": 0.0022061693, "MEAN_MOTION_DOT": 5.865e-05, "MEAN_MOTION_DDOT": 0}, "tle": {"line1": "1 34651U 97051KC  25353.69778264  .00005865  00000+0  22062-2 0  9995", "line2": "2 34651  86.2827 137.6175 0142246 181.9677 178.0974 14.25922062859957"}}, "geometry": {"type": "Point", "coordinates": [-71.04821190233436, 82.0776552518875]}}, {"type": "Feature", "properties": {"norad_id": 34652, "name": "IRIDIUM 33 DEB", "group": "iridium-33-debris", "lat": -44.27390839378502, "lon": 159.63695438216385, "alt_km": 679.6007778413878, "timestamp": "2025-12-21T14:40:48.303537+00:00", "meta": {"OBJECT_NAME": "IRIDIUM 33 DEB", "OBJECT_ID": "1997-051KD", "EPOCH": "2025-12-21T05:29:24.538272", "MEAN_MOTION": 14.62128423, "ECCENTRICITY": 0.00254872, "INCLINATION": 86.3314, "RA_OF_ASC_NODE": 336.221, "ARG_OF_PERICENTER": 267.1492, "MEAN_ANOMALY": 103.1146, "EPHEMERIS_TYPE": 0, "CLASSIFICATION_TYPE": "U", "NORAD_CAT_ID": 34652, "ELEMENT_SET_NO": 999, "REV_AT_EPOCH": 88608, "BSTAR": 0.00068721862, "MEAN_MOTION_DOT": 3.491e-05, "MEAN_MOTION_DDOT": 0}, "tle": {"line1": "1 34652U 97051KD  25355.22875623  .00003491  00000+0  68722-3 0  9991", "line2": "2 34652  86.3314 336.2210 0025487 267.1492 103.1146 14.62128423886080"}}, "geometry": {"type": "Point", "coordinates": [159.63695438216385, -44.27390839378502]}}, {"type": "Feature", "properties": {"norad_id": 34690, "name": "IRIDIUM 33 DEB", "group": "iridium-33-debris", "lat": -44.40342486017417, "lon": -143.30749884629603, "alt_km": 720.7545472537658, "timestamp": "2025-12-21T14:40:48.303556+00:00", "meta": {"OBJECT_NAME": "IRIDIUM 33 DEB", "OBJECT_ID": "1997-051KM", "EPOCH": "2025-12-21T02:14:02.861088", "MEAN_MOTION": 14.55122739, "ECCENTRICITY": 0.00098763, "INCLINATION": 86.3773, "RA_OF_ASC_NODE": 33.3605, "ARG_OF_PERICENTER": 1.7251, "MEAN_ANOMALY": 27.9675, "EPHEMERIS_TYPE": 0, "CLASSIFICATION_TYPE": "U", "NORAD_CAT_ID": 34690, "ELEMENT_SET_NO": 999, "REV_AT_EPOCH": 88216, "BSTAR": 0.00028932758, "MEAN_MOTION_DOT": 1.27e-05, "MEAN_MOTION_DDOT": 0}, "tle": {"line1": "1 34690U 97051KM  25355.09308867  .00001270  00000+0  28933-3 0  9992", "line2": "2 34690  86.3773  33.3605 0009876   1.7251  27.9675 14.55122739882164"}}, "geometry": {"type": "Point", "coordinates": [-143.30749884629603, -44.40342486017417]}}, {"type": "Feature", "properties": {"norad_id": 34693, "name": "IRIDIUM 33 DEB", "group": "iridium-33-debris", "lat": 70.85632121566793, "lon": 108.6735953396991, "alt_km": 467.02169959340426, "timestamp": "2025-12-21T14:40:48.303573+00:00", "meta": {"OBJECT_NAME": "IRIDIUM 33 DEB", "OBJECT_ID": "1997-051KQ", "EPOCH": "2025-12-21T03:16:31.470240", "MEAN_MOTION": 15.29807867, "ECCENTRICITY": 0.00117533, "INCLINATION": 86.3031, "RA_OF_ASC_NODE": 299.6452, "ARG_OF_PERICENTER": 37.5614, "MEAN_ANOMALY": 335.7498, "EPHEMERIS_TYPE": 0, "CLASSIFICATION_TYPE": "U", "NORAD_CAT_ID": 34693, "ELEMENT_SET_NO": 999, "REV_AT_EPOCH": 89043, "BSTAR": 0.0032408064, "MEAN_MOTION_DOT": 0.00094734, "MEAN_MOTION_DDOT": 0}, "tle": {"line1": "1 34693U 97051KQ  25355.13647535  .00094734  00000+0  32408-2 0  9996", "line2": "2 34693  86.3031 299.6452 0011753  37.5614 335.7498 15.29807867890434"}}, "geometry": {"type": "Point", "coordinates": [108.6735953396991, 70.85632121566793]}}, {"type": "Feature", "properties": {"norad_id": 34696, "name": "IRIDIUM 33 DEB", "group": "iridium-33-debris", "lat": -31.74736902639134, "lon": 21.025229581231862, "alt_km": 732.9191047985942, "timestamp": "2025-12-21T14:40:48.303609+00:00", "meta": {"OBJECT_NAME": "IRIDIUM 33 DEB", "OBJECT_ID": "1997-051KT", "EPOCH": "2025-12-20T03:03:36.896832", "MEAN_MOTION": 14.65425134, "ECCENTRICITY": 0.0073881, "INCLINATION": 86.1833, "RA_OF_ASC_NODE": 24.0835, "ARG_OF_PERICENTER": 142.6074, "MEAN_ANOMALY": 281.0712, "EPHEMERIS_TYPE": 0, "CLASSIFICATION_TYPE": "U", "NORAD_CAT_ID": 34696, "ELEMENT_SET_NO": 999, "REV_AT_EPOCH": 86781, "BSTAR": 0.0025217059, "MEAN_MOTION_DOT": 0.00014237, "MEAN_MOTION_DDOT": 0}, "tle": {"line1": "1 34696U 97051KT  25354.12751038  .00014237  00000+0  25217-2 0  9991", "line2": "2 34696  86.1833  24.0835 0073881 142.6074 281.0712 14.65425134867818"}}, "geometry": {"type": "Point", "coordinates": [21.025229581231862, -31.74736902639134]}}, {"type": "Feature", "properties": {"norad_id": 34765, "name": "IRIDIUM 33 DEB", "group": "iridium-33-debris", "lat": 33.452917237925135, "lon": -153.46985238849214, "alt_km": 745.4820231905269, "timestamp": "2025-12-21T14:40:48.303630+00:00", "meta": {"OBJECT_NAME": "IRIDIUM 33 DEB", "OBJECT_ID": "1997-051LJ", "EPOCH": "2025-12-18T13:21:25.941600", "MEAN_MOTION": 14.40479279, "ECCENTRICITY": 0.00160914, "INCLINATION": 86.3386, "RA_OF_ASC_NODE": 30.2656, "ARG_OF_PERICENTER": 191.4295, "MEAN_ANOMALY": 322.071, "EPHEMERIS_TYPE": 0, "CLASSIFICATION_TYPE": "U", "NORAD_CAT_ID": 34765, "ELEMENT_SET_NO": 999, "REV_AT_EPOCH": 87697, "BSTAR": 0.00029987235, "MEAN_MOTION_DOT": 9.74e-06, "MEAN_MOTION_DDOT": 0}, "tle": {"line1": "1 34765U 97051LJ  25352.55655025  .00000974  00000+0  29987-3 0  9994", "line2": "2 34765  86.3386  30.2656 0016091 191.4295 322.0710 14.40479279876970"}}, "geometry": {"type": "Point", "coordinates": [-153.46985238849214, 33.452917237925135]}}]}